C/2025 K1-D,h,10/08.4565/2025,147.9348,97.6704,271.4302,1.002521,0.336304,2000,14.0,4.0
# From MPC186633
C/2025 K2 (PANSTARRS),e,113.9794,113.8291,232.4625,25.30197,0.0077441,0.88682029,0.8030,02/06.0/2026,2000,g 13.7,4.0
# From MPC188413
C/2025 K3 (PANSTARRS),h,12/14.1950/2028,104.9362,350.6422,188.5997,1.001388,3.470158,2000,6.4,4.0
# From MPEC 2025-XC7
C/2025 K4 (Siverd),e,38.5444,297.0824,326.9267,43.36301,0.0034516,0.94160693,0.6653,02/06.0/2026,2000,g 14.1,4.0
# From MPEC 2026-A24
C/2025 L1 (ATLAS),h,01/12.7442/2026,114.1360,208.1091,341.2570,1.001398,1.679551,2000,11.4,4.0
# From MPEC 2025-XC7
C/2025 L2 (MAPS),e,86.5839,134.9861,232.6422,487.2232,0.0000916,0.99418409,0.0000,12/20.6622/2025,2000,g 11.7,4.0
# From MPC188414
C/2025 M1 (PANSTARRS),e,64.8922,66.9581,230.4029,5327,0.0000025,0.99796669,0.0000,08/02.8279/2029,2000,g  2.9,4.0
# From MPEC 2025-UQ3
C/2025 M2 (PANSTARRS),h,11/23.4589/2027,173.2151,305.5342,96.7584,1.001972,2.720572,2000,13.4,4.0
# From MPC188414
C/2025 M3 (PANSTARRS),h,07/05.1256/2026,137.4235,65.2658,195.3737,1.019376,6.531974,2000,9.0,4.0
# From MPEC 2025-YF1
C/2025 N2 (ATLAS),h,12/10.7510/2024,81.6650,94.4636,230.0110,1.001835,8.982856,2000,5.1,4.0
# From MPC188414
C/2025 O2 (MAPS),e,134.5444,332.3114,280.2506,2555,0.0000076,0.99910409,0.0000,05/23.7290/2025,2000,g 14.3,4.0
# From MPC188414
A/2025 P1,e,117.7962,342.4206,334.5252,56.79082,0.0023030,0.96168918,0.7196,02/06.0/2026,2000,g 17.1,4.0
# From MPEC 2025-XC7
C/2025 Q1 (ATLAS),e,66.1619,326.9447,280.2328,1284,0.0000214,0.99213358,0.0000,07/11.8970/2024,2000,g  3.8,4.0
# From MPEC 2026-A90
C/2025 Q3 (ATLAS),e,90.1856,233.1437,218.4554,789.2746,0.0000444,0.99732345,0.0000,02/25.6404/2026,2000,g 12.2,4.0
# From MPEC 2026-A24
C/2025 R1 (ATLAS),e,110.0272,60.3972,77.5522,166.3528,0.0004594,0.98812637,0.0000,11/23.3389/2025,2000,g 14.0,4.0
# From MPEC 2026-A90
C/2025 R2 (SWAN),e,4.4729,335.3241,308.3631,86.60372,0.0012229,0.99417888,0.0000,09/12.8435/2025,2000,g 12.4,4.0
# From MPEC 2026-A90
C/2025 R3 (PANSTARRS),h,04/19.8951/2026,124.7307,38.6934,162.2257,1.000346,0.498613,2000,12.2,4.0
# From MPEC 2026-A24
A/2025 S2,e,96.6422,34.4731,31.5893,63.22129,0.0019607,0.97332796,0.0000,01/02.4146/2026,2000,g 16.0,2.0
# From MPEC 2025-XC7
A/2025 S3,e,103.5629,36.7301,71.1269,215.7222,0.0003111,0.98959556,0.0000,06/25.0924/2026,2000,g 15.0,2.0
# From MPEC 2026-A24
C/2025 T1 (ATLAS),e,123.4327,140.4947,114.1407,10631,0.0000009,0.99989570,0.0000,12/02.3752/2025,2000,g 14.7,4.0
# From MPEC 2026-A24
P/2025 U1 (Hogan),e,23.8297,234.9443,264.0709,5.901012,0.0687566,0.29408798,356.6850,02/06.0/2026,2000,g 11.7,4.0
# From MPEC 2026-A24
P/2025 UX109 (Ye),e,3.1816,197.9688,276.1226,3.800244,0.1330414,0.32384472,23.3910,02/06.0/2026,2000,g 13.7,4.0
# From MPEC 2026-A24
C/2025 V1 (Borisov),h,11/16.5432/2025,112.7093,91.8739,47.5691,1.007735,0.462684,2000,16.3,4.0
# From MPEC 2026-A90
C/2025 V2 (Rankin),h,03/22.9895/2027,37.2835,138.0824,102.7131,1.000647,1.952529,2000,9.0,4.0
# From MPEC 2025-YF1
C/2025 W1 (Sankovich),e,79.8004,95.8911,250.6375,10763,0.0000009,0.99961253,0.0000,02/17.7391/2025,2000,g  9.7,4.0
# From MPEC 2026-A24
C/2025 W2 (ATLAS),e,94.7104,90.8447,41.0350,26.92914,0.0070529,0.94603301,0.4243,02/06.0/2026,2000,g 17.9,4.0
# From MPEC 2026-A24
P/2025 W3 (Kresken),e,9.7503,60.0700,311.3209,2.547250,0.2424358,0.18039735,79.1044,02/06.0/2026,2000,g 17.2,4.0
# From MPEC 2026-A90
P/2025 W4 (PANSTARRS),e,1.2980,237.1174,172.2879,2.579453,0.2379100,0.21132390,29.6208,02/06.0/2026,2000,g 17.5,4.0
# From MPEC 2026-A90
C/2025 X1 (PANSTARRS),e,36.9556,95.6356,85.6696,33.85227,0.0050041,0.86211176,358.4581,02/06.0/2026,2000,g 10.2,4.0
# From MPEC 2026-A90
A/2025 Y1,e,14.5518,166.5462,124.2387,1623,0.0000151,0.99839214,0.0000,10/15.0171/2027,2000,g  6.0,2.0
# From MPEC 2026-AC1
P/2025 Y2 (PANSTARRS),e,16.5921,177.4638,345.0466,4.001449,0.1231340,0.23885463,7.3034,02/06.0/2026,2000,g 13.3,4.0
# From MPEC 2026-BC8
C/2025 Y3 (PANSTARRS),h,01/13.7023/2026,89.5486,272.9666,219.3831,1.000664,2.227313,2000,17.0,4.0
# From MPEC 2026-BC9
C/2026 A1 (MAPS),e,144.5087,7.9440,86.5325,110.2616,0.0008513,0.99995053,0.0000,04/04.5644/2026,2000,g 15.6,4.0
# From MPEC 2026-BK2
P/2026 B1 (PANSTARRS),e,4.0214,104.6622,72.6952,3.665594,0.1404389,0.31465647,333.3704,02/06.0/2026,2000,g 15.7,4.0
# From MPEC 2026-BK5
C/2026 B2 (Sun-Gao),e,59.7014,234.6161,47.0062,37.89411,0.0042252,0.96628578,0.1150,02/06.0/2026,2000,g  9.7,4.0
# From MPEC 2025-W75
1P/Halley,e,162.1648,59.4676,112.3662,17.85812,0.0130602,0.96797770,190.6096,02/06.0/2026,2000,g  5.5,3.2
# From MPEC 2025-XC7
2P/Encke,e,11.3472,334.0179,187.2806,2.217975,0.2983795,0.84724726,249.8277,02/06.0/2026,2000,g 11.5,6.0
# From AJ 76, 1135
3D-A/Biela,e,7.2156,276.6829,192.1426,3.551704,0.1472479,0.76712023,63.4438,02/06.0/2026,2000,g 11.0,6.0
# From AJ 76, 1135
3D-B/Biela,e,7.8797,276.2013,192.2618,3.540694,0.1479352,0.76785594,32.9786,02/06.0/2026,2000,g 11.0,6.0
# From MPEC 2026-A90
4P/Faye,e,8.0001,192.8976,207.1589,3.830642,0.1314609,0.57602570,211.8142,02/06.0/2026,2000,g  8.0,6.0
# From MPEC 2025-W75
6P/d'Arrest,e,19.5035,138.9533,178.0341,3.497644,0.1506748,0.61217594,241.6948,02/06.0/2026,2000,g  7.5,16.0
# From MPEC 2026-A24
7P/Pons-Winnecke,e,22.0270,92.8583,173.9982,3.345493,0.1610697,0.66021107,268.9755,02/06.0/2026,2000,g 10.0,6.0
# From MPEC 2025-W75
8P/Tuttle,e,54.9906,270.1921,207.4706,5.706262,0.0723064,0.82072973,117.2813,02/06.0/2026,2000,g  8.0,8.0
# From MPEC 2025-YF1
9P/Tempel,e,10.5322,67.0539,184.5114,3.299891,0.1644200,0.46751409,239.2656,02/06.0/2026,2000,g  5.5,10.0
# From MPEC 2026-A24
10P/Tempel,e,12.0272,117.7979,195.4754,3.064608,0.1837137,0.53740520,327.4597,02/06.0/2026,2000,g  5.0,10.0
# From MPEC 2025-W75
11P/Tempel-Swift-LINEAR,e,14.4310,238.8572,168.0623,3.282728,0.1657111,0.57735631,314.1106,02/06.0/2026,2000,g 17.0,4.0
# From MPEC 2026-A24
12P/Pons-Brooks,e,74.1773,255.8606,199.0228,17.25960,0.0137454,0.95472153,9.0146,02/06.0/2026,2000,g  5.0,6.0
# From MPEC 2025-W75
13P/Olbers,e,44.6617,85.8452,64.4272,16.93390,0.0141439,0.93059373,8.2863,02/06.0/2026,2000,g  5.0,6.0
# From MPEC 2025-W75
14P/Wolf,e,27.9177,202.0133,159.2062,4.255792,0.1122622,0.35653067,334.7358,02/06.0/2026,2000,g  5.5,12.0
# From MPEC 2025-W75
15P/Finlay,e,6.7855,13.7333,347.8687,3.511586,0.1497784,0.71589356,250.0812,02/06.0/2026,2000,g 12.0,4.0
# From MPEC 2025-W75
16P/Brooks,e,3.0098,138.8131,245.3768,3.662744,0.1406029,0.48534188,246.7875,02/06.0/2026,2000,g  7.5,10.0
# From MPEC 2025-W75
17P/Holmes,e,19.0045,326.5994,24.5938,3.642451,0.1417795,0.42610701,257.2393,02/06.0/2026,2000,g 10.0,6.0
# From QJ 19, 80
18D-A/Perrine-Mrkos,e,17.663,158.450,238.180,3.87921,0.129000,0.5894259,67.845,02/06.0/2026,2000,g 16.0,4.0
# From MPEC 2025-W75
19P/Borrelly,e,29.3103,74.2157,352.0164,3.608693,0.1437736,0.63762585,210.5616,02/06.0/2026,2000,g  4.5,10.0
# From MPEC 2025-W75
21P/Giacobini-Zinner,e,32.0558,195.3018,172.9397,3.491078,0.1511001,0.71109792,47.9955,02/06.0/2026,2000,g  9.0,6.0
# From MPEC 2026-A24
22P/Kopff,e,5.0403,119.8834,163.7320,3.370542,0.1592775,0.57717136,221.3929,02/06.0/2026,2000,g  3.0,10.4
# From MPEC 2025-W75
23P/Brorsen-Metcalf,e,19.5008,311.0497,130.1092,16.94543,0.0141294,0.97252622,0.0000,06/23.2634/2059,2000,g  7.8,3.2
# From MPEC 2026-A90
24P/Schaumasse,e,11.5022,78.2706,58.4823,4.057684,0.1205832,0.70822193,3.4558,02/06.0/2026,2000,g  6.5,14.0
# From MPEC 2025-W75
26P/Grigg-Skjellerup,e,22.4443,211.5269,2.1121,3.014003,0.1883599,0.64077178,145.7252,02/06.0/2026,2000,g 12.0,16.0
# From MPEC 2025-W75
27P/Crommelin,e,29.4123,250.6893,195.8628,9.170918,0.0354883,0.91955206,188.0434,02/06.0/2026,2000,g 12.0,8.0
# From MPEC 2025-W75
28P/Neujmin,e,14.2882,346.4236,347.4243,6.978340,0.0534658,0.77245063,95.9536,02/06.0/2026,2000,g  8.5,6.0
# From MPEC 2026-A90
29P/Schwassmann-Wachmann,e,9.3551,312.4013,51.7732,6.057830,0.0661041,0.04298266,163.8122,02/06.0/2026,2000,g  4.0,4.0
# From MPEC 2025-W75
30P/Reinmuth,e,8.0536,117.2293,9.5449,3.736561,0.1364570,0.51444923,73.3737,02/06.0/2026,2000,g  9.5,6.0
# From MPEC 2025-W75
31P/Schwassmann-Wachmann,e,4.5497,114.1127,18.0063,4.229511,0.1133102,0.19364779,272.5111,02/06.0/2026,2000,g  5.0,8.0
# From MPEC 2025-W75
32P/ComasSola,e,9.9182,54.5330,54.7402,4.555884,0.1013550,0.55531357,66.5145,02/06.0/2026,2000,g  6.5,8.0
# From MPEC 2025-W75
33P/Daniel,e,22.2938,66.2799,20.2638,4.091368,0.1190971,0.45181496,53.8483,02/06.0/2026,2000,g 10.0,12.0
# From MPEC 2025-W75
36P/Whipple,e,9.9441,181.8138,201.1997,4.142164,0.1169131,0.26783109,242.6951,02/06.0/2026,2000,g  8.5,6.0
# From MPEC 2025-W75
37P/Forbes,e,8.9478,314.5432,330.0773,3.461655,0.1530307,0.53246839,73.8886,02/06.0/2026,2000,g 10.5,4.8
# From MPEC 2025-W75
38P/Stephan-Oterma,e,18.4081,77.8687,359.6159,11.27160,0.0260451,0.85964649,68.7844,02/06.0/2026,2000,g  3.5,12.0
# From MPEC 2025-W75
39P/Oterma,e,1.7335,289.0965,118.0206,6.963655,0.0536350,0.16543571,45.5737,02/06.0/2026,2000,g  7.0,6.0
# From MPEC 2026-A24
40P/Vaisala,e,11.6403,128.9007,52.0601,4.943910,0.0896599,0.63110305,7.7087,02/06.0/2026,2000,g  5.5,12.0
# From MPEC 2025-W75
41P/Tuttle-Giacobini-Kresak,e,9.2165,140.9762,62.2045,3.087529,0.1816718,0.65984035,225.5970,02/06.0/2026,2000,g 10.0,16.0
# From MPEC 2025-W75
42P/Neujmin,e,3.9884,150.1550,147.1229,4.879918,0.0914293,0.58408115,2.0176,02/06.0/2026,2000,g 13.0,6.0
# From MPEC 2026-A90
43P/Wolf-Harrington,e,9.3300,243.9748,223.7784,4.329105,0.1094226,0.43575531,20.2947,02/06.0/2026,2000,g  8.0,6.0
# From MPEC 2025-W75
44P/Reinmuth,e,5.8957,286.4190,57.9664,3.687862,0.1391689,0.42669812,192.9525,02/06.0/2026,2000,g  8.3,6.0
# From MPEC 2025-W75
45P/Honda-Mrkos-Pajdusakova,e,4.3246,87.6640,327.9738,3.056910,0.1844082,0.81748845,254.5707,02/06.0/2026,2000,g 13.5,8.0
# From MPEC 2025-W75
46P/Wirtanen,e,11.7488,82.1642,356.3582,3.092728,0.1812139,0.65860561,113.7879,02/06.0/2026,2000,g 14.0,6.0
# From MPEC 2026-A90
